0 SL-8 R/B
1 21108U 91009J   13281.20476838  .00000240  00000-0  23890-2 0  9848
2 21108 074.0518 281.4973 0175016 051.3440 049.8584 12.18432725901283
0 SL-8 R/B
1 21108U 91009J   13283.51319897  .00000268  00000-0  26516-2 0  9854
2 21108 074.0517 278.6093 0175040 048.0605 095.4753 12.18433612901568
0 SL-8 R/B
1 21108U 91009J   13285.56397958  .00000060  00000-0  69272-3 0  9863
2 21108 074.0517 276.0435 0175118 045.1403 090.9448 12.18436351901812
0 SL-8 R/B
1 21108U 91009J   13288.17306029 -.00000008  00000-0  51733-4 0  9870
2 21108 074.0521 272.7789 0175163 041.4312 015.3435 12.18437429902130
0 SL-8 R/B
1 21108U 91009J   13290.48907394  .00000181  00000-0  18319-2 0  9882
2 21108 074.0526 269.8812 0175230 038.1386 094.2588 12.18435466902413
0 SL-8 R/B
1 21108U 91009J   13292.69988458  .00000275  00000-0  27106-2 0  9896
2 21108 074.0530 267.1155 0175297 034.9978 071.6985 12.18435450902685
0 SL-8 R/B
1 21108U 91009J   13295.15215485  .00000044  00000-0  54489-3 0  9904
2 21108 074.0531 264.0478 0175294 031.5085 028.2647 12.18438265902982
